{"type":"FeatureCollection","features":[{"type":"Feature","geometry":{"type":"MultiPolygon","coordinates":[[[[123.8919,10.4919],[123.888,10.4935],[123.8671,10.4883],[123.8387,10.4548],[123.8373,10.4551],[123.8324,10.4492],[123.8294,10.4485],[123.8256,10.4439],[123.819,10.4398],[123.8172,10.4411],[123.8088,10.4368],[123.7939,10.4104],[123.7851,10.4077],[123.7697,10.3863],[123.7705,10.362],[123.7761,10.3489],[123.7759,10.3276],[123.789,10.3298],[123.7913,10.3325],[123.7915,10.3382],[123.7981,10.3355],[123.8023,10.3366],[123.8031,10.3326],[123.8037,10.3345],[123.807,10.3334],[123.8081,10.3355],[123.8065,10.3322],[123.8094,10.3305],[123.8093,10.3273],[123.811,10.3292],[123.8141,10.3275],[123.8159,10.3294],[123.8203,10.3245],[123.8202,10.3138],[123.8286,10.293],[123.8303,10.2846],[123.8352,10.2843],[123.8364,10.2819],[123.8421,10.2806],[123.8477,10.2738],[123.8478,10.2701],[123.8517,10.2683],[123.8512,10.2635],[123.856,10.2631],[123.8585,10.2588],[123.86,10.2612],[123.8681,10.2626],[123.8752,10.2583],[123.8734,10.2598],[123.8824,10.2714],[123.8797,10.2738],[123.8817,10.2791],[123.8876,10.2859],[123.8855,10.2894],[123.8868,10.2902],[123.8897,10.2882],[123.8904,10.285],[123.8906,10.2899],[123.897,10.2886],[123.9091,10.2921],[123.9081,10.2931],[123.9092,10.295],[123.9104,10.2944],[123.9093,10.2953],[123.9104,10.2974],[123.9117,10.2968],[123.9105,10.2977],[123.9117,10.2996],[123.9258,10.3104],[123.9223,10.3149],[123.9187,10.3148],[123.9209,10.3164],[123.9189,10.3197],[123.9208,10.3209],[123.9212,10.3267],[123.9196,10.3279],[123.9221,10.3333],[123.9195,10.333],[123.9169,10.3381],[123.9129,10.3397],[123.9191,10.3581],[123.9258,10.3619],[123.9237,10.3677],[123.9268,10.3708],[123.9232,10.3833],[123.9242,10.4008],[123.9217,10.4052],[123.9239,10.4197],[123.923,10.4348],[123.9251,10.4726],[123.92,10.4733],[123.9186,10.479],[123.9137,10.4851],[123.9016,10.4874],[123.8919,10.4919]]],[[[123.9061,10.2765],[123.9055,10.2809],[123.9043,10.2775],[123.9061,10.2765]]]]},"properties":{"adm3_name":"Cebu City (Capital)","adm3_name1":null,"adm3_name2":null,"adm3_name3":null,"adm3_pcode":"PH0702217","adm2_name":"Cebu","adm2_name1":null,"adm2_name2":null,"adm2_name3":null,"adm2_pcode":"PH07022","adm1_name":"Region VII (Central Visayas)","adm1_name1":null,"adm1_name2":null,"adm1_name3":null,"adm1_pcode":"PH07","adm0_name":"Philippines","adm0_name1":null,"adm0_name2":null,"adm0_name3":null,"adm0_pcode":"PH","valid_on":"2025-02-13","valid_to":null,"area_sqkm":290.90496337,"version":"v03","lang":"en","lang1":null,"lang2":null,"lang3":null,"adm3_ref_name":"Cebu City (Capital)","center_lat":10.37630138,"center_lon":123.84772702}},{"type":"Feature","geometry":{"type":"Polygon","coordinates":[[[123.95720433100007,10.340753863000032],[123.94917933300007,10.332778210000072],[123.94551731400009,10.326529772000072],[123.94391100100006,10.328696670000056],[123.94889123000007,10.341431275000048],[123.95720433100007,10.340753863000032]]]},"properties":{"city":"Mandaue City","barangay":"Alang-alang"}},{"type":"Feature","geometry":{"type":"Polygon","coordinates":[[[123.93365686200002,10.339852137000037],[123.93831776500008,10.334114226000054],[123.93489623800008,10.331674436000071],[123.93000367200011,10.337792810000053],[123.93013347300007,10.340481012000055],[123.93365686200002,10.339852137000037]]]},"properties":{"city":"Mandaue City","barangay":"Bakilid"}},{"type":"Feature","geometry":{"type":"Polygon","coordinates":[[[123.92624469500004,10.344810038000048],[123.93013347300007,10.340481012000055],[123.93000367200011,10.337792810000053],[123.92422768300003,10.337884492000057],[123.92216604000009,10.333430002000057],[123.9221307470001,10.33331382800003],[123.91732463800008,10.335556778000068],[123.9129345670001,10.339720890000024],[123.91536119600005,10.348712866000028],[123.92624469500004,10.344810038000048]]]},"properties":{"city":"Mandaue City","barangay":"Banilad"}},{"type":"Feature","geometry":{"type":"Polygon","coordinates":[[[123.95887024000001,10.35899764100003],[123.95978082600004,10.358090608000055],[123.95505106600001,10.35681547200005],[123.94961628500005,10.352355492000072],[123.94849401700003,10.352600766000023],[123.9492012820001,10.355985002000068],[123.94638011300003,10.364186919000076],[123.95238163400006,10.360139766000032],[123.95887024000001,10.35899764100003]]]},"properties":{"city":"Mandaue City","barangay":"Basak"}},{"type":"Feature","geometry":{"type":"Polygon","coordinates":[[[123.92728033300011,10.361003122000056],[123.92959683800007,10.354329162000056],[123.93200364900008,10.351058367000064],[123.92624469500004,10.344810038000048],[123.91536119600005,10.348712866000028],[123.91887287000009,10.35737926400003],[123.92221437600006,10.36096926700003],[123.92577062600003,10.36193750600006],[123.92728033300011,10.361003122000056]]]},"properties":{"city":"Mandaue City","barangay":"Cabancalan"}},{"type":"Feature","geometry":{"type":"Polygon","coordinates":[[[123.95267490300012,10.33091199200004],[123.95225985900004,10.328260874000023],[123.95079163300011,10.324771665000071],[123.94551731400009,10.326529772000072],[123.94917933300007,10.332778210000072],[123.95267490300012,10.33091199200004]]]},"properties":{"city":"Mandaue City","barangay":"Cambaro"}},{"type":"Feature","geometry":{"type":"Polygon","coordinates":[[[123.93312997300006,10.373203932000024],[123.94321435800009,10.366334709000057],[123.94349769400003,10.364997279000022],[123.93881144700003,10.365472761000035],[123.93508007800006,10.360840454000027],[123.9317109650001,10.359360896000055],[123.92728033300011,10.361003122000056],[123.92577062600003,10.36193750600006],[123.92512106900006,10.366564334000032],[123.92687907200002,10.37383796000006],[123.93006727900001,10.371895239000025],[123.93312997300006,10.373203932000024]]]},"properties":{"city":"Mandaue City","barangay":"Canduman"}},{"type":"Feature","geometry":{"type":"Polygon","coordinates":[[[123.94043058500006,10.375643842000045],[123.93517669500011,10.374922268000034],[123.93210137000005,10.380415807000077],[123.93639136400009,10.380241737000063],[123.94043058500006,10.375643842000045]]]},"properties":{"city":"Mandaue City","barangay":"Casili"}},{"type":"Feature","geometry":{"type":"Polygon","coordinates":[[[123.93562585900008,10.348389217000033],[123.93365686200002,10.339852137000037],[123.93013347300007,10.340481012000055],[123.92624469500004,10.344810038000048],[123.93200364900008,10.351058367000064],[123.93562585900008,10.348389217000033]]]},"properties":{"city":"Mandaue City","barangay":"Casuntingan"}},{"type":"Feature","geometry":{"type":"Polygon","coordinates":[[[123.94391100100006,10.328696670000056],[123.94551731400009,10.326529772000072],[123.94188314300004,10.321330707000072],[123.94085491300007,10.321919454000067],[123.93989191500009,10.325996776000068],[123.94205151300002,10.33027684800004],[123.94391100100006,10.328696670000056]]]},"properties":{"city":"Mandaue City","barangay":"Centro (Pob.)"}},{"type":"Feature","geometry":{"type":"Polygon","coordinates":[[[123.94727253500002,10.366966761000072],[123.94638011300003,10.364186919000076],[123.94349769400003,10.364997279000022],[123.94321435800009,10.366334709000057],[123.93312997300006,10.373203932000024],[123.93517669500011,10.374922268000034],[123.94043058500006,10.375643842000045],[123.94229807900001,10.373698760000025],[123.94326997900009,10.367343753000057],[123.94727253500002,10.366966761000072]]]},"properties":{"city":"Mandaue City","barangay":"Cubacub"}},{"type":"Feature","geometry":{"type":"Polygon","coordinates":[[[123.94094210900005,10.330698114000029],[123.93803392900008,10.32739652500004],[123.93489623800008,10.331674436000071],[123.93831776500008,10.334114226000054],[123.93969581600004,10.335079947000054],[123.94094210900005,10.330698114000029]]]},"properties":{"city":"Mandaue City","barangay":"Guizo"}},{"type":"Feature","geometry":{"type":"Polygon","coordinates":[[[123.94889123000007,10.341431275000048],[123.94391100100006,10.328696670000056],[123.94205151300002,10.33027684800004],[123.94094210900005,10.330698114000029],[123.93969581600004,10.335079947000054],[123.9459241720001,10.339517922000027],[123.94743243300002,10.342013605000034],[123.94889123000007,10.341431275000048]]]},"properties":{"city":"Mandaue City","barangay":"Ibabao-Estancia"}},{"type":"Feature","geometry":{"type":"Polygon","coordinates":[[[123.95887024000001,10.35899764100003],[123.95238163400006,10.360139766000032],[123.94638011300003,10.364186919000076],[123.94727253500002,10.366966761000072],[123.95175428100004,10.369925315000046],[123.95585011800006,10.36997503300006],[123.95984910100003,10.36483656400003],[123.95887024000001,10.35899764100003]]]},"properties":{"city":"Mandaue City","barangay":"Jagobiao"}},{"type":"Feature","geometry":{"type":"Polygon","coordinates":[[[123.96585196400008,10.351572685000065],[123.96176991000004,10.34864251700003],[123.95590459000005,10.348192725000047],[123.95415998900012,10.346266222000054],[123.94825698600005,10.347060695000039],[123.94961628500005,10.352355492000072],[123.95505106600001,10.35681547200005],[123.95978082600004,10.358090608000055],[123.96585196400008,10.351572685000065]]]},"properties":{"city":"Mandaue City","barangay":"Labogon"}},{"type":"Feature","geometry":{"type":"Polygon","coordinates":[[[123.95644729500009,10.323432871000023],[123.95480930400004,10.321257937000041],[123.94558465900002,10.31910233700006],[123.94188314300004,10.321330707000072],[123.94551731400009,10.326529772000072],[123.95079163300011,10.324771665000071],[123.95225985900004,10.328260874000023],[123.95644729500009,10.323432871000023]]]},"properties":{"city":"Mandaue City","barangay":"Looc"}},{"type":"Feature","geometry":{"type":"Polygon","coordinates":[[[123.94743243300002,10.342013605000034],[123.9459241720001,10.339517922000027],[123.93969581600004,10.335079947000054],[123.93831776500008,10.334114226000054],[123.93365686200002,10.339852137000037],[123.93562585900008,10.348389217000033],[123.94336670100006,10.342450682000049],[123.94743243300002,10.342013605000034]]]},"properties":{"city":"Mandaue City","barangay":"Maguikay"}},{"type":"Feature","geometry":{"type":"Polygon","coordinates":[[[123.94094210900005,10.330698114000029],[123.94205151300002,10.33027684800004],[123.93989191500009,10.325996776000068],[123.93803392900008,10.32739652500004],[123.94094210900005,10.330698114000029]]]},"properties":{"city":"Mandaue City","barangay":"Mantuyong"}},{"type":"Feature","geometry":{"type":"Polygon","coordinates":[[[123.9654934880001,10.327907095000057],[123.95997199800001,10.323493882000037],[123.95644729500009,10.323432871000023],[123.95225985900004,10.328260874000023],[123.95267490300012,10.33091199200004],[123.959321509,10.332282944000042],[123.96103932900007,10.334135928000023],[123.9654934880001,10.327907095000057]]]},"properties":{"city":"Mandaue City","barangay":"Opao"}},{"type":"Feature","geometry":{"type":"Polygon","coordinates":[[[123.975134894,10.339169696000056],[123.971337919,10.343147825000074],[123.96705640800008,10.34031979200006],[123.95720433100007,10.340753863000032],[123.94889123000007,10.341431275000048],[123.94743243300002,10.342013605000034],[123.94825698600005,10.347060695000039],[123.95415998900012,10.346266222000054],[123.95590459000005,10.348192725000047],[123.96176991000004,10.34864251700003],[123.96585196400008,10.351572685000065],[123.97359558300002,10.346448836000036],[123.975134894,10.339169696000056]]]},"properties":{"city":"Mandaue City","barangay":"Pakna-an"}},{"type":"Feature","geometry":{"type":"Polygon","coordinates":[[[123.94349769400003,10.364997279000022],[123.94638011300003,10.364186919000076],[123.9492012820001,10.355985002000068],[123.94849401700003,10.352600766000023],[123.93892714700007,10.354832105000071],[123.93890485500003,10.35804214600006],[123.93508007800006,10.360840454000027],[123.93881144700003,10.365472761000035],[123.94349769400003,10.364997279000022]]]},"properties":{"city":"Mandaue City","barangay":"Pagsabungan"}},{"type":"Feature","geometry":{"type":"Polygon","coordinates":[[[123.9336040820001,10.315919913000073],[123.92765358100007,10.31122447000007],[123.92548647600006,10.311265924000054],[123.91894714900002,10.319863456000064],[123.92103626500011,10.325633493000055],[123.91993024200008,10.328222370000049],[123.9221307470001,10.33331382800003],[123.92216604000009,10.333430002000057],[123.92466168900012,10.328486554000051],[123.93182472300009,10.324361428000032],[123.92912522600011,10.32005788300006],[123.9336040820001,10.315919913000073]]]},"properties":{"city":"Mandaue City","barangay":"Subangdaku"}},{"type":"Feature","geometry":{"type":"Polygon","coordinates":[[[123.94849401700003,10.352600766000023],[123.94961628500005,10.352355492000072],[123.94825698600005,10.347060695000039],[123.94743243300002,10.342013605000034],[123.94336670100006,10.342450682000049],[123.93562585900008,10.348389217000033],[123.93892714700007,10.354832105000071],[123.94849401700003,10.352600766000023]]]},"properties":{"city":"Mandaue City","barangay":"Tabok"}},{"type":"Feature","geometry":{"type":"Polygon","coordinates":[[[123.93210137000005,10.380415807000077],[123.93517669500011,10.374922268000034],[123.93312997300006,10.373203932000024],[123.93006727900001,10.371895239000025],[123.92687907200002,10.37383796000006],[123.92420527800004,10.378068634000044],[123.92318373500007,10.383342048000031],[123.92772943300008,10.384058933000063],[123.93210137000005,10.380415807000077]]]},"properties":{"city":"Mandaue City","barangay":"Tawason"}},{"type":"Feature","geometry":{"type":"Polygon","coordinates":[[[123.93508007800006,10.360840454000027],[123.93890485500003,10.35804214600006],[123.93892714700007,10.354832105000071],[123.93562585900008,10.348389217000033],[123.93200364900008,10.351058367000064],[123.92959683800007,10.354329162000056],[123.92728033300011,10.361003122000056],[123.9317109650001,10.359360896000055],[123.93508007800006,10.360840454000027]]]},"properties":{"city":"Mandaue City","barangay":"Tingub"}},{"type":"Feature","geometry":{"type":"Polygon","coordinates":[[[123.93000367200011,10.337792810000053],[123.93489623800008,10.331674436000071],[123.93803392900008,10.32739652500004],[123.93989191500009,10.325996776000068],[123.94085491300007,10.321919454000067],[123.9336040820001,10.315919913000073],[123.92912522600011,10.32005788300006],[123.93182472300009,10.324361428000032],[123.92466168900012,10.328486554000051],[123.92216604000009,10.333430002000057],[123.92422768300003,10.337884492000057],[123.93000367200011,10.337792810000053]]]},"properties":{"city":"Mandaue City","barangay":"Tipolo"}},{"type":"Feature","geometry":{"type":"Polygon","coordinates":[[[123.975134894,10.339169696000056],[123.97119090300009,10.337151328000061],[123.97004089300003,10.331501638000077],[123.9654934880001,10.327907095000057],[123.96103932900007,10.334135928000023],[123.959321509,10.332282944000042],[123.95267490300012,10.33091199200004],[123.94917933300007,10.332778210000072],[123.95720433100007,10.340753863000032],[123.96705640800008,10.34031979200006],[123.971337919,10.343147825000074],[123.975134894,10.339169696000056]]]},"properties":{"city":"Mandaue City","barangay":"Umapad"}}]}